{"type": "FeatureCollection", "meta": {"dataset": "kr_events", "built": "2026-07-28", "note": "South Korea festivals/events overlapping Aug-Oct 2026, each web-verified (WebSearch/WebFetch) against an official, tourism-board, press or Wikipedia source. No fabricated dates: where the 2026 date was not officially announced, source_note says \"NOT YET ANNOUNCED\"/\"typical period\" (prior-year window advanced to 2026), \"tentative\", or \"PLANNED\" instead of \"Confirmed\". `genre` is a closed enum (music|culture|food|film|fireworks|sport|seasonal|other). Adversarial re-verify 2026-07-28 (pointreach-events-0728 verify) of the 28 rows added in pointreach-0728: 2 rows STRIPPED (Gyeongju World Culture Expo — its only source was a 2011 article for the 6th edition, an irregular series last held 2019 with no 2026 edition; Yeosu Jinnam Turtle Ship Festival — Yeosu city has the 60th edition on May 1-3, 2026, outside this window, and the cited page showed a 2022 period), 4 rows date-corrected, 1 row re-pinned to the correct city, and 9 source URLs replaced or downgraded from \"Confirmed\" where the cited page did not support the claim."}, "features": [{"type": "Feature", "geometry": {"type": "Point", "coordinates": [126.5133, 36.4084]}, "properties": {"title": "Boryeong Mud Festival", "start_date": "2026-07-24", "end_date": "2026-08-09", "month": "aug", "city": "Boryeong", "category": "beach/music", "genre": "seasonal", "url": "https://www.touristkorea.com/boryeong-mud-festival-july-24th-august-9th-2026/", "source_note": "Confirmed 2026 dates (starts in July, spans into August; classified aug per overlap with the Aug-Oct window). genre=seasonal (summer beach event; music is a secondary program element per the confirmed category text)."}}, {"type": "Feature", "geometry": {"type": "Point", "coordinates": [126.6588, 37.3894]}, "properties": {"title": "Incheon Pentaport Rock Festival", "start_date": "2026-07-31", "end_date": "2026-08-02", "month": "aug", "city": "Incheon", "category": "music", "genre": "music", "url": "https://www.songkick.com/festivals/436703-incheon-pentaport-rock/id/43216076-incheon-pentaport-rock-festival-2026", "source_note": "Confirmed 2026 dates (Songdo Moonlight Festival Park); spans into August."}}, {"type": "Feature", "geometry": {"type": "Point", "coordinates": [126.9327, 37.5283]}, "properties": {"title": "Seoul Han River Summer Festival", "start_date": "2026-08-01", "end_date": "2026-08-16", "month": "aug", "city": "Seoul", "category": "culture/music", "genre": "culture", "url": "https://www.koreatimes.co.kr/lifestyle/people-events/20260727/seoul-to-launch-16-day-summer-festival-along-han-river", "source_note": "Confirmed 2026 dates, Seoul Metropolitan Government \"365 Festival City\" program, 9 Han River parks. genre=culture (multi-park city program, not a single music act)."}}, {"type": "Feature", "geometry": {"type": "Point", "coordinates": [127.7298, 37.8813]}, "properties": {"title": "Chuncheon Puppet Festival", "start_date": "2026-09-11", "end_date": "2026-09-17", "month": "sep", "city": "Chuncheon", "category": "arts", "genre": "culture", "url": "https://en.wikipedia.org/wiki/Chuncheon_Puppet_Festival", "source_note": "38th edition, confirmed 2026 dates from organizer social channels."}}, {"type": "Feature", "geometry": {"type": "Point", "coordinates": [126.9099, 36.276]}, "properties": {"title": "Baekje Cultural Festival", "start_date": "2026-10-03", "end_date": "2026-10-11", "month": "oct", "city": "Buyeo / Gongju", "category": "heritage", "genre": "culture", "url": "https://www.gongju.go.kr/prog/tursmCn/tour/sub03_01_08/view.do?cntno=67", "source_note": "Confirmed 2026 dates (72nd edition): Gongju city tourism page states \"2026. 10. 3.(토) ~ 10. 11.(일) / 9일간\". Re-verified 2026-07-28 (krtravel-0728 review) — an earlier draft carried 2024's window (Sep 28-Oct 6) and a dead www.baekje.org/eng/ link; both corrected."}}, {"type": "Feature", "geometry": {"type": "Point", "coordinates": [128.7294, 36.5684]}, "properties": {"title": "Andong Mask Dance Festival", "start_date": "2026-09-24", "end_date": "2026-10-04", "month": "sep", "city": "Andong", "category": "heritage/folklore", "genre": "culture", "url": "https://www.eaff.eu/en/festivals/388-5343-2026-andong-international-maskdance-festival-competition", "source_note": "Confirmed 2026 dates (International Mask Dance Festival & Competition)."}}, {"type": "Feature", "geometry": {"type": "Point", "coordinates": [126.8809, 35.8034]}, "properties": {"title": "Gimje Horizon Festival", "start_date": "2026-10-01", "end_date": "2026-10-05", "month": "oct", "city": "Gimje", "category": "agriculture/heritage", "genre": "seasonal", "url": "https://english.visitkorea.or.kr/svc/contents/contentsView.do?vcontsId=103479", "source_note": "Confirmed 2026 dates, Byeokgolje Reservoir site — VisitKorea lists the event period as \"2026-10-01 ~ 2026-10-05\". Re-verified 2026-07-28 (krtravel-0728 review): the earlier gimje.go.kr link pointed at the Horizon BARLEY FIELD festival (a different, May event) and was replaced. genre=seasonal (harvest-season agricultural festival)."}}, {"type": "Feature", "geometry": {"type": "Point", "coordinates": [128.085, 35.18]}, "properties": {"title": "Jinju Namgang Yudeung (Lantern) Festival", "start_date": "2026-10-03", "end_date": "2026-10-18", "month": "oct", "city": "Jinju", "category": "lantern/culture", "genre": "culture", "url": "https://seoulstart.com/festivals/jinju-namgang-yudeung-lantern-festival", "source_note": "Reported as tentative/TBD for 2026 as of 2026-07-28 search."}}, {"type": "Feature", "geometry": {"type": "Point", "coordinates": [129.1306, 35.1691]}, "properties": {"title": "Busan International Film Festival (BIFF)", "start_date": "2026-10-06", "end_date": "2026-10-15", "month": "oct", "city": "Busan", "category": "film", "genre": "film", "url": "https://www.biff.kr/eng/", "source_note": "Confirmed 2026 dates from the official BIFF site, 31st edition."}}, {"type": "Feature", "geometry": {"type": "Point", "coordinates": [126.9327, 37.5283]}, "properties": {"title": "Seoul International Fireworks Festival", "start_date": "2026-09-05", "end_date": "2026-09-05", "month": "sep", "city": "Seoul", "category": "fireworks", "genre": "fireworks", "url": "https://www.hanwhafireworks.com/", "source_note": "Scheduled Saturday 2026-09-05 (Yeouido/Ichon Hangang Park) per Seoul city administrative documents; Hanwha's own final confirmation still pending, so treat as near-final rather than officially posted. Re-verified 2026-07-28 (krtravel-0728 review) — an earlier draft used the historical \"first Saturday of October\" guess (Oct 3), which the announcement contradicts."}}, {"type": "Feature", "geometry": {"type": "Point", "coordinates": [129.2072, 35.8356]}, "properties": {"title": "Silla Cultural Festival", "start_date": "2026-10-09", "end_date": "2026-10-11", "month": "oct", "city": "Gyeongju", "category": "heritage", "genre": "culture", "url": "https://english.visitkorea.or.kr/svc/contents/contentsView.do?vcontsId=80004", "source_note": "NOT ANNOUNCED for 2026 — derived typical period. Verified prior editions: 2024 = Oct 11-13 (VisitKorea), 2025 = Oct 10-12 (Fri-Sun); shown here as the equivalent Fri-Sun window Oct 9-11 2026. Re-verified 2026-07-28 (krtravel-0728 review); the earlier trippose.com link blocked non-browser clients (HTTP 403) and was replaced."}}, {"type": "Feature", "geometry": {"type": "Point", "coordinates": [128.6189, 38.0754]}, "properties": {"title": "Yangyang Songi (Pine Mushroom) Festival", "start_date": "2026-10-10", "end_date": "2026-10-12", "month": "oct", "city": "Yangyang", "category": "food/agriculture", "genre": "food", "url": "https://english.visitkorea.or.kr/svc/contents/contentsView.do?vcontsId=168341", "source_note": "NOT ANNOUNCED for 2026 — typical period. 2025 edition verified as Oct 10-12 (Yangyang Namdaecheon); the same calendar window is shown for 2026. Re-verified 2026-07-28 (krtravel-0728 review); the earlier trippose.com link blocked non-browser clients (HTTP 403) and was replaced."}}, {"type": "Feature", "geometry": {"type": "Point", "coordinates": [127.4425, 37.2794]}, "properties": {"title": "Icheon Rice Cultural Festival", "start_date": "2026-10-22", "end_date": "2026-10-26", "month": "oct", "city": "Icheon", "category": "food/agriculture", "genre": "food", "url": "https://english.visitkorea.or.kr/svc/contents/contentsView.do?vcontsId=102601", "source_note": "typical period (2025 reference: Oct 22-26); 2026 dates not yet officially announced as of search."}}, {"type": "Feature", "geometry": {"type": "Point", "coordinates": [126.8514, 35.1518]}, "properties": {"title": "Gwangju Kimchi Festival", "start_date": "2026-10-23", "end_date": "2026-10-25", "month": "oct", "city": "Gwangju", "category": "food", "genre": "food", "url": "https://english.visitkorea.or.kr/svc/whereToGo/locIntrdn/rgnContentsView.do?vcontsId=198450", "source_note": "Confirmed 2026 dates, Sangmu Citizens Park."}}, {"type": "Feature", "geometry": {"type": "Point", "coordinates": [127.153, 35.815]}, "properties": {"title": "Jeonju Bibimbap Festival", "start_date": "2026-10-23", "end_date": "2026-10-26", "month": "oct", "city": "Jeonju", "category": "food", "genre": "food", "url": "https://www.korea.net/Events/Festivals/view?articleId=5351", "source_note": "typical period (prior-year pattern: late Oct at Jeonju Hanok Village); 2026 dates not yet officially confirmed as of search."}}, {"type": "Feature", "geometry": {"type": "Point", "coordinates": [127.514, 37.826]}, "properties": {"title": "Jarasum International Jazz Festival", "start_date": "2026-10-09", "end_date": "2026-10-11", "month": "oct", "city": "Gapyeong", "category": "jazz/music", "genre": "music", "url": "https://en.wikipedia.org/wiki/Jarasum_International_Jazz_Festival", "source_note": "Confirmed 2026 dates: the 23rd Jarasum Jazz Festival runs Oct 9-11, 2026 on Jaraseom Island, Gapyeong."}}, {"type": "Feature", "geometry": {"type": "Point", "coordinates": [128.978, 35.181]}, "properties": {"title": "Busan International Rock Festival", "start_date": "2026-10-02", "end_date": "2026-10-04", "month": "oct", "city": "Busan", "category": "rock/music", "genre": "music", "url": "https://www.busan.go.kr/eng/bsnews01/1734665", "source_note": "Confirmed 2026 dates from official Busan city release: Oct 2-4, 2026 at Samnak Ecological Park, Sasang-gu."}}, {"type": "Feature", "geometry": {"type": "Point", "coordinates": [127.011, 37.285]}, "properties": {"title": "Suwon Hwaseong Cultural Festival", "start_date": "2026-10-04", "end_date": "2026-10-11", "month": "oct", "city": "Suwon", "category": "heritage/culture", "genre": "culture", "url": "https://english.visitkorea.or.kr/svc/contents/contentsView.do?vcontsId=92547", "source_note": "Confirmed 2026 dates per the cited VisitKorea event page, which lists the period as \"2026-10-04 ~ 2026-10-11\" at Hwaseong Fortress (62nd festival; the Jeongjo royal-procession centrepiece falls on Oct 4). Corrected pointreach-events-0728 verify — an earlier draft carried Sep 27-Oct 4, which contradicted its own cited source."}}, {"type": "Feature", "geometry": {"type": "Point", "coordinates": [126.925, 37.556]}, "properties": {"title": "Seoul Fringe Festival", "start_date": "2026-08-06", "end_date": "2026-08-23", "month": "aug", "city": "Seoul", "category": "arts/culture", "genre": "culture", "url": "https://english.visitkorea.or.kr/enu/ATR/SI_EN_3_2_2.jsp?cid=293071", "source_note": "Confirmed 2026 dates: Aug 6-23, 2026 at Seobo Art Space, Mapo-gu, Seoul."}}, {"type": "Feature", "geometry": {"type": "Point", "coordinates": [128.191, 37.132]}, "properties": {"title": "Jecheon International Music & Film Festival (JIMFF)", "start_date": "2026-09-03", "end_date": "2026-09-08", "month": "sep", "city": "Jecheon", "category": "film/music", "genre": "film", "url": "https://asianfilmfestivals.com/2026/04/09/jecheon-international-music-film-festival-call-for-entry-2026/", "source_note": "Confirmed for the 22nd edition; most sources give Sep 3-8, 2026, one official-adjacent source says through Sep 9 — end date has a minor cross-source discrepancy, flagged rather than silently picked."}}, {"type": "Feature", "geometry": {"type": "Point", "coordinates": [127.066, 37.531]}, "properties": {"title": "Seoul Street Arts Festival", "start_date": "2026-09-19", "end_date": "2026-09-20", "month": "sep", "city": "Seoul", "category": "arts/culture", "genre": "culture", "url": "http://www.ssaf.or.kr/", "source_note": "2026 dates PLANNED, not final: Sep 19-20, 2026 around the Han River parks, listed as \"scheduled\" (yejeong) with operating hours still undecided. Source replaced pointreach-events-0728 verify — the earlier english.seoul.go.kr link is a 2017 article about that year's edition and carried no 2026 dates, so the previous \"Confirmed 2026 dates\" label was not supported by its own source."}}, {"type": "Feature", "geometry": {"type": "Point", "coordinates": [127.1215, 37.5203]}, "properties": {"title": "Grand Mint Festival", "start_date": "2026-10-17", "end_date": "2026-10-18", "month": "oct", "city": "Seoul", "category": "music/indie", "genre": "music", "url": "https://www.mintpaper.co.kr/festivals/172", "source_note": "Confirmed 2026 dates and venue per the official Mintpaper festival page: GMF 2026 runs Oct 17-18, 2026 at Olympic Park, Seoul (Mint Breeze Stage / 88 Jandi Madang, KSPO DOME, 88 Lake waterside stage). Corrected pointreach-events-0728 verify — an earlier draft cited a ticketing aggregator, called the venue \"unresolved\" between Goyang Stadium and Olympic Park, and pinned the map marker on Goyang Stadium; the official source resolves it to Olympic Park, Seoul."}}, {"type": "Feature", "geometry": {"type": "Point", "coordinates": [128.909, 37.782]}, "properties": {"title": "Gangneung Coffee Festival", "start_date": "2026-10-23", "end_date": "2026-10-26", "month": "oct", "city": "Gangneung", "category": "food/coffee", "genre": "food", "url": "https://www.coffeefestival.net/", "source_note": "2026 dates NOT CONFIRMED — placeholder window. Annual late-October event around Anmok Beach / Coffee Street; the 2025 edition ran Oct 23-26 and that calendar window is shown here with the year advanced only. 2026 reports CONFLICT (one gives Oct 21-25 for the 18th edition, another Oct 3-6) and the official site had not posted the 2026 edition at search time, so nothing here is presented as final. Source moved off a 2025-dated aggregator listing to the official festival site pointreach-events-0728 verify."}}, {"type": "Feature", "geometry": {"type": "Point", "coordinates": [127.66, 35.874]}, "properties": {"title": "Muju Firefly Festival", "start_date": "2026-09-04", "end_date": "2026-09-12", "month": "sep", "city": "Muju", "category": "nature/seasonal", "genre": "seasonal", "url": "https://tour.muju.go.kr/tour/contents.do?key=139", "source_note": "Confirmed 2026 dates per Muju County's official tourism site: the 30th Muju Firefly Festival runs Sep 4-12, 2026 (9 days) across Muju County (Jinam Park, Namdaecheon, Bandiland). Corrected pointreach-events-0728 verify — an earlier draft carried the 2025 window (Aug 29-Sep 7, month=aug) labelled \"not yet announced\"; the 2026 dates are in fact officially posted."}}, {"type": "Feature", "geometry": {"type": "Point", "coordinates": [126.832, 37.658]}, "properties": {"title": "DMZ International Documentary Film Festival (DMZ Docs)", "start_date": "2026-09-10", "end_date": "2026-09-16", "month": "sep", "city": "Goyang", "category": "film/documentary", "genre": "film", "url": "https://asianfilmfestivals.com/2026/02/27/dmz-docs-international-documentary-film-festival-call-for-entry-2026/", "source_note": "Confirmed 2026 dates: the 18th DMZ Docs runs Sep 10-16, 2026 across Goyang and Paju, Gyeonggi."}}, {"type": "Feature", "geometry": {"type": "Point", "coordinates": [126.891, 35.183]}, "properties": {"title": "Gwangju Biennale", "start_date": "2026-09-05", "end_date": "2026-11-15", "month": "sep", "city": "Gwangju", "category": "art/culture", "genre": "culture", "url": "https://biennialfoundation.org/2026/03/16th-gwangju-biennale/", "source_note": "Confirmed 2026 dates: the 16th Gwangju Biennale, \"You Must Change Your Life,\" runs Sep 5-Nov 15, 2026 at the Gwangju Biennale Exhibition Hall (overlaps the Aug-Oct window through Oct 31; runs beyond it into November)."}}, {"type": "Feature", "geometry": {"type": "Point", "coordinates": [128.59, 38.171]}, "properties": {"title": "Waterbomb Sokcho", "start_date": "2026-08-22", "end_date": "2026-08-22", "month": "aug", "city": "Sokcho", "category": "music/water", "genre": "music", "url": "https://www.starnewskorea.com/en/business-life/2026/03/17/2026031712014427555", "source_note": "Confirmed single-day date: Aug 22, 2026 at Hanwha Resort Seorak, per Starnews Korea."}}, {"type": "Feature", "geometry": {"type": "Point", "coordinates": [127.325, 37.577]}, "properties": {"title": "Semiwon Lotus Flower Festival", "start_date": "2026-06-26", "end_date": "2026-08-17", "month": "aug", "city": "Yangpyeong", "category": "flower/seasonal", "genre": "seasonal", "url": "https://korean.visitkorea.or.kr/kfes/detail/fstvlDetail.do?fstvlCntntsId=9aef769f-4f22-4a7f-981a-aacac41fd0d6", "source_note": "Confirmed 2026 dates: the Semiwon Lotus Culture Festival runs Jun 26-Aug 17, 2026 at Semiwon near Dumulmeori, Yangpyeong (theme \"Pungnyu, resting on the lotus\"), per VisitKorea's festival listing and Kyeonggi Ilbo's 2026-06-29 opening report. Starts before the window; classified aug per overlap. Source replaced pointreach-events-0728 verify — the earlier travel-blog link gave no dates at all, so its \"confirmed\" label was not supported by the page it cited."}}, {"type": "Feature", "geometry": {"type": "Point", "coordinates": [128.113, 36.134]}, "properties": {"title": "Gimcheon Grape Festival", "start_date": "2026-08-14", "end_date": "2026-08-16", "month": "aug", "city": "Gimcheon", "category": "food/agriculture", "genre": "food", "url": "http://www.gcpodo.com/01_introduce_sub03.php", "source_note": "Confirmed 2026 dates: Aug 14-16, 2026 at the Gimcheon Sports Town auxiliary ground, per the official Gimcheon Grape Festival site and Gimcheon city press coverage (reformatted this year as a stay-and-experience festival with plum/peach zones). Source upgraded from a travel blog to the official festival site pointreach-events-0728 verify."}}, {"type": "Feature", "geometry": {"type": "Point", "coordinates": [126.76, 33.556]}, "properties": {"title": "Jeju Haenyeo Festival", "start_date": "2026-09-20", "end_date": "2026-09-22", "month": "sep", "city": "Jeju City", "category": "culture/heritage", "genre": "culture", "url": "https://www.korea.net/NewsFocus/Culture/view?articleId=258183", "source_note": "NOT YET ANNOUNCED for 2026 — typical period. Korea.net documents the 17th festival (a recent prior year) at Gimnyeong Beach/Haenyeo Museum running Sep 20-22; that calendar window is shown with the year advanced as a placeholder, 2026 dates unconfirmed."}}, {"type": "Feature", "geometry": {"type": "Point", "coordinates": [129.075, 35.18]}, "properties": {"title": "Busan International Comedy Festival", "start_date": "2026-08-21", "end_date": "2026-08-30", "month": "aug", "city": "Busan", "category": "comedy", "genre": "other", "url": "https://bicf.kr/en/", "source_note": "Confirmed 2026 dates per official festival site: Aug 21-30, 2026, Busan."}}, {"type": "Feature", "geometry": {"type": "Point", "coordinates": [127.729, 36.489]}, "properties": {"title": "Boeun Jujube (Daechu) Festival", "start_date": "2026-10-17", "end_date": "2026-10-26", "month": "oct", "city": "Boeun", "category": "food/agriculture", "genre": "food", "url": "https://www.tridge.com/news/even-in-abnormal-weather-boeun-jujubes-have--wtqdvj", "source_note": "NOT YET ANNOUNCED for 2026 — typical period. The 2025 festival ran Oct 17-26 at Bocheon Stream / Baetdeul Park, Boeun (annual October event); that calendar window is shown with the year advanced as a placeholder, 2026 dates unconfirmed. Source is a press aggregator's 2025-09-17 report (kept pointreach-events-0728 verify: it states the prior-year dates this row is derived from, and no official Boeun page had posted 2026 at search time) — treat as prior-year evidence, not a 2026 announcement."}}, {"type": "Feature", "geometry": {"type": "Point", "coordinates": [129.225, 35.856]}, "properties": {"title": "Gyeongju Marathon", "start_date": "2026-10-17", "end_date": "2026-10-17", "month": "oct", "city": "Gyeongju", "category": "sport/marathon", "genre": "sport", "url": "https://www.gyeongjumarathon.com/", "source_note": "Confirmed 2026 date per the official Gyeongju Marathon site: Saturday Oct 17, 2026, 8:00 start from Gyeongju Citizens' Stadium (full / half / 10km). Source upgraded from the Ahotu race aggregator (which blocks non-browser clients, HTTP 403) to the official race site pointreach-events-0728 verify."}}, {"type": "Feature", "geometry": {"type": "Point", "coordinates": [127.73, 37.881]}, "properties": {"title": "Chuncheon International Marathon", "start_date": "2026-10-25", "end_date": "2026-10-25", "month": "oct", "city": "Chuncheon", "category": "sport/marathon", "genre": "sport", "url": "https://www.chuncheonmarathon.com/", "source_note": "Confirmed 2026 date per the official Chosun Ilbo Chuncheon Marathon site: Sunday Oct 25, 2026, 9:00 start at Gongjicheon Bridge, Chuncheon (national marathon championship; full + 10km). Source upgraded from the Ahotu aggregator (HTTP 403 to non-browser clients) pointreach-events-0728 verify; the vague \"Sep 18-Oct 2 event window\" seen in one third-party listing is contradicted by the organiser and is not carried here."}}, {"type": "Feature", "geometry": {"type": "Point", "coordinates": [129.136, 35.169]}, "properties": {"title": "Busan Indie Connect Festival (BIC)", "start_date": "2026-08-14", "end_date": "2026-08-16", "month": "aug", "city": "Busan", "category": "music/indie", "genre": "music", "url": "https://sports.khan.co.kr/en/article/202601221117257", "source_note": "Confirmed 2026 dates per press coverage: the offline BIC Festival runs Aug 14-16, 2026 at BEXCO, Busan (with an accompanying online festival Aug 7-28)."}}, {"type": "Feature", "geometry": {"type": "Point", "coordinates": [127.148, 35.824]}, "properties": {"title": "Jeonju International Sori Festival", "start_date": "2026-08-12", "end_date": "2026-08-16", "month": "aug", "city": "Jeonju", "category": "music/traditional", "genre": "music", "url": "https://sorifestival.com/en/", "source_note": "Confirmed 2026 dates per official festival site: Aug 12-16, 2026 (the festival moved to a summer slot starting 2024)."}}, {"type": "Feature", "geometry": {"type": "Point", "coordinates": [127.313, 38.147]}, "properties": {"title": "Goseokjeong Autumn Flower Festival", "start_date": "2026-09-01", "end_date": "2026-10-31", "month": "sep", "city": "Cheorwon", "category": "flower/seasonal", "genre": "seasonal", "url": "https://www.cwg.go.kr/tour/contents.do?key=1823", "source_note": "SEASON-LEVEL, NOT EXACT DATES. Cheorwon county tourism describes the Goseokjeong Flower Garden autumn season as running early September to late October (cockscomb, zinnia, pink muhly; closed Tuesdays), bloom-dependent and adjustable by weather — so Sep 1-Oct 31 is a season approximation, not an announced festival window. Corrected pointreach-events-0728 verify — an earlier draft showed Aug 25-Nov 1 and quoted \"late August to early November 2026\" as if from the source; that phrase appears nowhere on the cited page, which named neither Cheorwon nor any dates."}}, {"type": "Feature", "geometry": {"type": "Point", "coordinates": [127.279, 37.008]}, "properties": {"title": "Anseong Namsadang Baudeogi Festival", "start_date": "2026-10-02", "end_date": "2026-10-05", "month": "oct", "city": "Anseong", "category": "heritage/culture", "genre": "culture", "url": "https://www.anseong.go.kr/festival/", "source_note": "Confirmed 2026 dates per Anseong city's official festival portal (\"2026 festival guide\"): the main festival runs Oct 2-5, 2026 at Anseongmatchum Land and the Anseong-cheon riverside, preceded by an Oct 1 eve event (jeonyaje) in Ayang-dong. UNESCO-listed Namsadang Nori. Corrected pointreach-events-0728 verify — an earlier draft showed Oct 1-5 and called the 2026 edition unannounced, which the official portal contradicts."}}, {"type": "Feature", "geometry": {"type": "Point", "coordinates": [127.428, 36.325]}, "properties": {"title": "Daejeon 0 O'Clock Festival", "start_date": "2026-08-07", "end_date": "2026-08-17", "month": "aug", "city": "Daejeon", "category": "culture/street", "genre": "culture", "url": "https://www.asiae.co.kr/en/article/2025123017271921517", "source_note": "Confirmed 2026 dates per Asia Business Daily: the festival extended to 11 days, Aug 7-17, 2026, in downtown Daejeon (Jungang-ro area)."}}, {"type": "Feature", "geometry": {"type": "Point", "coordinates": [128.52, 36.925]}, "properties": {"title": "Yeongju Punggi Ginseng Festival", "start_date": "2026-10-18", "end_date": "2026-10-26", "month": "oct", "city": "Yeongju", "category": "food/agriculture", "genre": "food", "url": "https://www.asiae.co.kr/en/article/2025101913102247397", "source_note": "NOT YET ANNOUNCED for 2026 — typical period. Most recent (2025) festival ran Oct 18-26 in Punggi-eup, Yeongju (annual, consistently October); that calendar window is shown with the year advanced as a placeholder, 2026 dates unconfirmed."}}, {"type": "Feature", "geometry": {"type": "Point", "coordinates": [126.56, 33.246]}, "properties": {"title": "Seogwipo Chilsimni Festival", "start_date": "2026-10-23", "end_date": "2026-10-25", "month": "oct", "city": "Seogwipo", "category": "culture/heritage", "genre": "culture", "url": "https://www.tripkorean.com/events/541", "source_note": "2026 dates NOT FINAL — cross-source discrepancy, flagged rather than silently picked. The cited listing gives Oct 23-25, 2026 at the Cheonjiyeon parking-lot area, Seogwipo, Jeju, and thefestival.co.kr agrees; another listing instead gives Oct 16-18. Shown here as Oct 23-25 (the majority reading). Downgraded from \"Confirmed\" pointreach-events-0728 verify."}}]}