{"type": "FeatureCollection", "features": [{"type": "Feature", "geometry": {"type": "MultiPolygon", "coordinates": [[[[127.116, 37.478], [127.1054, 37.4921], [127.0965, 37.4962], [127.0705, 37.5034], [127.0666, 37.5249], [127.052, 37.5325], [127.0293, 37.5394], [127.0239, 37.5397], [127.0084, 37.5259], [127.0132, 37.5226], [127.0151, 37.5247], [127.0177, 37.5218], [127.0205, 37.5127], [127.034, 37.4844], [127.0415, 37.4854], [127.0451, 37.4771], [127.051, 37.4714], [127.0488, 37.4698], [127.0511, 37.4693], [127.0508, 37.4669], [127.0555, 37.4686], [127.067, 37.4697], [127.0769, 37.475], [127.0845, 37.4754], [127.0859, 37.4704], [127.0912, 37.467], [127.0926, 37.4617], [127.0961, 37.4609], [127.0965, 37.4565], [127.0983, 37.4566], [127.104, 37.4601], [127.104, 37.4627], [127.1138, 37.461], [127.1201, 37.4639], [127.1225, 37.4664], [127.1226, 37.4688], [127.116, 37.478]]]]}, "properties": {"gu": "Gangnam-gu", "gu_kr": "강남구", "conn_tier": "well-connected", "conn_mean_m": 28.9, "conn_rank": 9}}, {"type": "Feature", "geometry": {"type": "MultiPolygon", "coordinates": [[[[126.9808, 37.5065], [126.9809, 37.5028], [126.9852, 37.4998], [126.9829, 37.4969], [126.9817, 37.4765], [126.9709, 37.4754], [126.9645, 37.4797], [126.9611, 37.4835], [126.9618, 37.4885], [126.9604, 37.4901], [126.9611, 37.4934], [126.9598, 37.4939], [126.9539, 37.491], [126.947, 37.4941], [126.9372, 37.4919], [126.9274, 37.495], [126.9242, 37.49], [126.9166, 37.4895], [126.9118, 37.4867], [126.9031, 37.485], [126.9123, 37.4963], [126.9202, 37.4982], [126.9252, 37.5123], [126.9277, 37.5157], [126.9361, 37.5163], [126.9489, 37.5197], [126.9651, 37.5127], [126.9733, 37.5071], [126.9808, 37.5065]]]]}, "properties": {"gu": "Dongjak-gu", "gu_kr": "동작구", "conn_tier": "well-connected", "conn_mean_m": 28.4, "conn_rank": 6}}, {"type": "Feature", "geometry": {"type": "MultiPolygon", "coordinates": [[[[126.8123, 37.5408], [126.8254, 37.5417], [126.8276, 37.5477], [126.8298, 37.5477], [126.83, 37.5417], [126.8331, 37.5418], [126.8352, 37.5375], [126.8344, 37.5365], [126.8405, 37.5265], [126.864, 37.5298], [126.8638, 37.5407], [126.8621, 37.5444], [126.8642, 37.5512], [126.8724, 37.5471], [126.8803, 37.5477], [126.878, 37.553], [126.8792, 37.553], [126.8805, 37.5563], [126.864, 37.5644], [126.8476, 37.5762], [126.8193, 37.5928], [126.8175, 37.5954], [126.8026, 37.605], [126.797, 37.5977], [126.7973, 37.595], [126.8002, 37.5924], [126.7987, 37.5913], [126.801, 37.5893], [126.8008, 37.5881], [126.7987, 37.5881], [126.7955, 37.583], [126.7948, 37.5851], [126.7946, 37.5825], [126.7933, 37.5844], [126.7931, 37.5769], [126.7912, 37.5813], [126.7905, 37.5777], [126.7884, 37.5767], [126.7891, 37.5755], [126.7879, 37.5761], [126.7822, 37.5735], [126.7813, 37.5715], [126.7825, 37.5705], [126.7804, 37.5705], [126.7816, 37.5691], [126.7801, 37.5675], [126.7791, 37.5683], [126.7765, 37.5661], [126.7754, 37.5682], [126.7747, 37.5676], [126.7778, 37.5598], [126.7756, 37.5619], [126.7718, 37.5586], [126.7731, 37.5574], [126.7723, 37.5569], [126.7664, 37.557], [126.7644, 37.5553], [126.7676, 37.5542], [126.7675, 37.552], [126.7703, 37.5511], [126.7715, 37.5484], [126.7753, 37.549], [126.7776, 37.5467], [126.7873, 37.5461], [126.7917, 37.5437], [126.7918, 37.5418], [126.7951, 37.5413], [126.7932, 37.5396], [126.7945, 37.5357], [126.7994, 37.5377], [126.7988, 37.5402], [126.8022, 37.5427], [126.8072, 37.5435], [126.8123, 37.5408]]]]}, "properties": {"gu": "Gangseo-gu", "gu_kr": "강서구", "conn_tier": "peripheral", "conn_mean_m": 42.4, "conn_rank": 24}}, {"type": "Feature", "geometry": {"type": "MultiPolygon", "coordinates": [[[[126.8718, 37.4852], [126.878, 37.4738], [126.8846, 37.466], [126.8827, 37.4644], [126.8843, 37.4627], [126.8871, 37.4629], [126.8889, 37.4609], [126.8854, 37.4601], [126.8863, 37.4564], [126.8892, 37.4547], [126.8896, 37.4523], [126.894, 37.4527], [126.896, 37.448], [126.895, 37.4482], [126.8946, 37.4467], [126.8973, 37.4454], [126.8999, 37.4396], [126.899, 37.4387], [126.9028, 37.4359], [126.903, 37.4341], [126.9088, 37.4337], [126.9127, 37.439], [126.9194, 37.4408], [126.9231, 37.4463], [126.9291, 37.4502], [126.9248, 37.4528], [126.9222, 37.4566], [126.9141, 37.4579], [126.9144, 37.4616], [126.9129, 37.4641], [126.9138, 37.4653], [126.9101, 37.4687], [126.9083, 37.4727], [126.9111, 37.4738], [126.9118, 37.4768], [126.9119, 37.4778], [126.9087, 37.4791], [126.9098, 37.4809], [126.8951, 37.4785], [126.8885, 37.4799], [126.8791, 37.4863], [126.8742, 37.4852], [126.8728, 37.4863], [126.8718, 37.4852]]]]}, "properties": {"gu": "Geumcheon-gu", "gu_kr": "금천구", "conn_tier": "peripheral", "conn_mean_m": 41.8, "conn_rank": 23}}, {"type": "Feature", "geometry": {"type": "MultiPolygon", "coordinates": [[[[126.8676, 37.4946], [126.8701, 37.4936], [126.8694, 37.4917], [126.8704, 37.4895], [126.8741, 37.4913], [126.8747, 37.4899], [126.8729, 37.49], [126.8728, 37.4884], [126.8768, 37.4885], [126.8745, 37.4853], [126.8784, 37.4863], [126.8814, 37.4856], [126.8894, 37.4795], [126.8989, 37.4789], [126.9031, 37.485], [126.8968, 37.4885], [126.8933, 37.4993], [126.8935, 37.5069], [126.8916, 37.5101], [126.8795, 37.5178], [126.8773, 37.516], [126.8779, 37.5133], [126.8766, 37.5137], [126.8739, 37.5112], [126.8768, 37.5108], [126.8755, 37.5111], [126.8755, 37.5095], [126.8738, 37.5091], [126.875, 37.5077], [126.8736, 37.5036], [126.8703, 37.5058], [126.869, 37.5049], [126.8635, 37.505], [126.8626, 37.5068], [126.8641, 37.5083], [126.8603, 37.5066], [126.8583, 37.5099], [126.8556, 37.5092], [126.8529, 37.5107], [126.8462, 37.509], [126.8447, 37.5057], [126.8407, 37.506], [126.8352, 37.5029], [126.8306, 37.5064], [126.831, 37.508], [126.827, 37.5085], [126.8271, 37.5104], [126.8215, 37.51], [126.8226, 37.5056], [126.8216, 37.5021], [126.819, 37.499], [126.8163, 37.4977], [126.8143, 37.4983], [126.813, 37.4964], [126.8146, 37.4932], [126.8227, 37.49], [126.8235, 37.4878], [126.819, 37.4857], [126.82, 37.4816], [126.8147, 37.4746], [126.8177, 37.4731], [126.8195, 37.4764], [126.8217, 37.4762], [126.8218, 37.4752], [126.8239, 37.4765], [126.8293, 37.4763], [126.8313, 37.4776], [126.8339, 37.4768], [126.8347, 37.4744], [126.8383, 37.4754], [126.8432, 37.4748], [126.8452, 37.4733], [126.8462, 37.4811], [126.8525, 37.4818], [126.8618, 37.4903], [126.8675, 37.4932], [126.8676, 37.4946]]]]}, "properties": {"gu": "Guro-gu", "gu_kr": "구로구", "conn_tier": "mid", "conn_mean_m": 32.4, "conn_rank": 12}}, {"type": "Feature", "geometry": {"type": "MultiPolygon", "coordinates": [[[[126.9083, 37.4727], [126.9101, 37.4687], [126.9138, 37.4653], [126.9129, 37.4641], [126.9144, 37.4616], [126.9141, 37.4579], [126.9222, 37.4566], [126.9248, 37.4528], [126.9286, 37.4509], [126.9317, 37.4454], [126.9383, 37.4405], [126.9389, 37.4354], [126.9477, 37.4389], [126.9558, 37.439], [126.9594, 37.4408], [126.9637, 37.441], [126.9647, 37.4459], [126.9745, 37.4477], [126.9762, 37.4507], [126.981, 37.4531], [126.9823, 37.4566], [126.9885, 37.4579], [126.9874, 37.4598], [126.9881, 37.4656], [126.9838, 37.4705], [126.9817, 37.4765], [126.9709, 37.4754], [126.9645, 37.4797], [126.9611, 37.4835], [126.9618, 37.4885], [126.9604, 37.4901], [126.9611, 37.4934], [126.9598, 37.4939], [126.9539, 37.491], [126.947, 37.4941], [126.9372, 37.4919], [126.9274, 37.495], [126.9242, 37.49], [126.9166, 37.4895], [126.9118, 37.4867], [126.9031, 37.485], [126.8989, 37.4789], [126.9098, 37.4809], [126.9087, 37.4791], [126.9119, 37.4778], [126.9118, 37.4768], [126.9111, 37.4738], [126.9083, 37.4727]]]]}, "properties": {"gu": "Gwanak-gu", "gu_kr": "관악구", "conn_tier": "mid", "conn_mean_m": 36.5, "conn_rank": 16}}, {"type": "Feature", "geometry": {"type": "MultiPolygon", "coordinates": [[[[126.9822, 37.4854], [126.9817, 37.4753], [126.9838, 37.4705], [126.9881, 37.4656], [126.9874, 37.4598], [126.9885, 37.4579], [126.9911, 37.4607], [126.9965, 37.4622], [126.9964, 37.4659], [126.9978, 37.4677], [127.0031, 37.4673], [127.007, 37.4593], [127.011, 37.4554], [127.0146, 37.4548], [127.0259, 37.4577], [127.0266, 37.4597], [127.0285, 37.4601], [127.0296, 37.4653], [127.0338, 37.4647], [127.0347, 37.4641], [127.034, 37.4602], [127.0374, 37.4552], [127.0356, 37.4532], [127.0376, 37.449], [127.0379, 37.4447], [127.0353, 37.4405], [127.036, 37.4391], [127.0408, 37.4384], [127.0462, 37.4335], [127.0475, 37.4306], [127.0516, 37.4287], [127.0707, 37.4302], [127.0714, 37.436], [127.0741, 37.4381], [127.072, 37.4399], [127.0716, 37.4419], [127.0823, 37.4412], [127.0842, 37.444], [127.0885, 37.4452], [127.0882, 37.449], [127.0928, 37.4539], [127.093, 37.4555], [127.0965, 37.4565], [127.0961, 37.4609], [127.0926, 37.4617], [127.0912, 37.467], [127.0859, 37.4704], [127.0845, 37.4754], [127.0769, 37.475], [127.067, 37.4697], [127.0555, 37.4686], [127.0508, 37.4669], [127.0511, 37.4693], [127.0488, 37.4698], [127.051, 37.4714], [127.0451, 37.4771], [127.0415, 37.4854], [127.034, 37.4844], [127.0205, 37.5127], [127.0181, 37.5212], [127.0151, 37.5247], [127.0132, 37.5226], [127.0084, 37.5259], [126.9854, 37.5065], [126.9808, 37.5065], [126.9809, 37.5028], [126.9852, 37.4998], [126.9829, 37.4969], [126.9822, 37.4854]]]]}, "properties": {"gu": "Seocho-gu", "gu_kr": "서초구", "conn_tier": "well-connected", "conn_mean_m": 28.2, "conn_rank": 5}}, {"type": "Feature", "geometry": {"type": "MultiPolygon", "coordinates": [[[[126.8243, 37.5135], [126.8231, 37.5162], [126.8256, 37.5201], [126.8251, 37.523], [126.8288, 37.5265], [126.8282, 37.529], [126.8253, 37.53], [126.8219, 37.5349], [126.8216, 37.5397], [126.8254, 37.5417], [126.8276, 37.5477], [126.8298, 37.5477], [126.83, 37.5417], [126.8331, 37.5418], [126.8352, 37.5375], [126.8344, 37.5365], [126.8405, 37.5265], [126.864, 37.5298], [126.8638, 37.5407], [126.8621, 37.5444], [126.8645, 37.5512], [126.8726, 37.5471], [126.8808, 37.5481], [126.8851, 37.5433], [126.8901, 37.5344], [126.8885, 37.5326], [126.8907, 37.5317], [126.8895, 37.53], [126.8872, 37.5302], [126.8832, 37.5273], [126.8809, 37.5277], [126.8809, 37.5259], [126.8788, 37.5254], [126.8794, 37.5205], [126.8782, 37.5188], [126.8796, 37.5176], [126.8773, 37.516], [126.8779, 37.5133], [126.8766, 37.5137], [126.8739, 37.5112], [126.8768, 37.5108], [126.8755, 37.5111], [126.8755, 37.5095], [126.8738, 37.5091], [126.875, 37.5077], [126.8736, 37.5036], [126.8703, 37.5058], [126.869, 37.5049], [126.8635, 37.505], [126.8626, 37.5068], [126.8641, 37.5083], [126.8603, 37.5066], [126.8583, 37.5099], [126.8556, 37.5092], [126.8529, 37.5107], [126.8462, 37.509], [126.8447, 37.5057], [126.8407, 37.506], [126.8352, 37.5029], [126.8306, 37.5064], [126.831, 37.508], [126.827, 37.5085], [126.8271, 37.5104], [126.8241, 37.5105], [126.8243, 37.5135]]]]}, "properties": {"gu": "Yangcheon-gu", "gu_kr": "양천구", "conn_tier": "peripheral", "conn_mean_m": 37.5, "conn_rank": 19}}, {"type": "Feature", "geometry": {"type": "MultiPolygon", "coordinates": [[[[126.9494, 37.5289], [126.9442, 37.5342], [126.9329, 37.5405], [126.9303, 37.5414], [126.9271, 37.539], [126.9224, 37.5414], [126.9048, 37.5414], [126.8989, 37.548], [126.8805, 37.5563], [126.8792, 37.553], [126.878, 37.553], [126.8899, 37.5349], [126.8886, 37.5321], [126.8907, 37.5317], [126.8895, 37.53], [126.8872, 37.5302], [126.8834, 37.5273], [126.8807, 37.5276], [126.8809, 37.5259], [126.8786, 37.5251], [126.8794, 37.5206], [126.8782, 37.5187], [126.8823, 37.5154], [126.89, 37.5118], [126.8931, 37.508], [126.8933, 37.4993], [126.8968, 37.4885], [126.902, 37.4851], [126.9031, 37.485], [126.9123, 37.4963], [126.9202, 37.4982], [126.9252, 37.5123], [126.9277, 37.5157], [126.9361, 37.5163], [126.9489, 37.5197], [126.9494, 37.5289]]]]}, "properties": {"gu": "Yeongdeungpo-gu", "gu_kr": "영등포구", "conn_tier": "mid", "conn_mean_m": 30.3, "conn_rank": 11}}, {"type": "Feature", "geometry": {"type": "MultiPolygon", "coordinates": [[[[127.0155, 37.7015], [127.0146, 37.6985], [127.01, 37.6967], [127.0082, 37.6921], [127.0081, 37.6802], [127.0119, 37.6794], [127.0139, 37.6749], [127.0186, 37.6696], [127.0155, 37.6661], [127.0166, 37.6617], [127.0145, 37.6619], [127.0129, 37.6512], [127.0154, 37.6492], [127.0214, 37.6489], [127.0248, 37.6473], [127.0325, 37.6419], [127.0346, 37.6378], [127.0375, 37.6365], [127.0417, 37.6312], [127.0443, 37.6338], [127.0465, 37.641], [127.0492, 37.6423], [127.0507, 37.6449], [127.0533, 37.6413], [127.0551, 37.6408], [127.0559, 37.6454], [127.0538, 37.6563], [127.0489, 37.6684], [127.0521, 37.6844], [127.0502, 37.6878], [127.0501, 37.691], [127.0484, 37.6939], [127.0449, 37.6924], [127.0419, 37.6953], [127.0324, 37.6919], [127.0289, 37.6999], [127.0273, 37.7009], [127.0247, 37.6997], [127.0155, 37.7015]]]]}, "properties": {"gu": "Dobong-gu", "gu_kr": "도봉구", "conn_tier": "peripheral", "conn_mean_m": 53.6, "conn_rank": 25}}, {"type": "Feature", "geometry": {"type": "MultiPolygon", "coordinates": [[[[127.0234, 37.5719], [127.0314, 37.5698], [127.0382, 37.573], [127.0419, 37.573], [127.0485, 37.57], [127.0591, 37.5623], [127.0723, 37.56], [127.0785, 37.5728], [127.0777, 37.5801], [127.0712, 37.5886], [127.0694, 37.5959], [127.0724, 37.6007], [127.0718, 37.6068], [127.0623, 37.6051], [127.0592, 37.601], [127.0521, 37.6001], [127.0513, 37.6013], [127.0455, 37.5953], [127.043, 37.597], [127.0418, 37.5965], [127.0387, 37.5913], [127.0362, 37.5912], [127.0363, 37.5899], [127.0295, 37.5827], [127.0233, 37.5784], [127.0234, 37.5719]]]]}, "properties": {"gu": "Dongdaemun-gu", "gu_kr": "동대문구", "conn_tier": "well-connected", "conn_mean_m": 28.6, "conn_rank": 8}}, {"type": "Feature", "geometry": {"type": "MultiPolygon", "coordinates": [[[[126.9504, 37.6108], [126.9507, 37.6154], [126.9489, 37.6253], [126.9598, 37.6297], [126.9634, 37.6332], [126.9592, 37.6423], [126.9572, 37.6529], [126.9511, 37.655], [126.9469, 37.659], [126.9399, 37.6565], [126.9359, 37.6509], [126.9289, 37.6502], [126.923, 37.646], [126.9145, 37.645], [126.9108, 37.6477], [126.8984, 37.6514], [126.9028, 37.6477], [126.9123, 37.6443], [126.9102, 37.6382], [126.9112, 37.6359], [126.9061, 37.6332], [126.9088, 37.6293], [126.9089, 37.626], [126.9063, 37.6241], [126.9072, 37.6219], [126.903, 37.6183], [126.9003, 37.6112], [126.902, 37.6038], [126.9002, 37.6032], [126.9001, 37.6021], [126.9019, 37.5952], [126.899, 37.5928], [126.8999, 37.5899], [126.8969, 37.5886], [126.8865, 37.5888], [126.8856, 37.5912], [126.8871, 37.5945], [126.882, 37.5908], [126.8887, 37.5847], [126.9021, 37.576], [126.9132, 37.5871], [126.9164, 37.5859], [126.916, 37.5832], [126.9218, 37.5834], [126.9239, 37.5872], [126.9278, 37.5881], [126.9278, 37.5917], [126.9303, 37.5946], [126.9409, 37.5988], [126.9414, 37.6007], [126.94, 37.6031], [126.9504, 37.6108]]]]}, "properties": {"gu": "Eunpyeong-gu", "gu_kr": "은평구", "conn_tier": "peripheral", "conn_mean_m": 39.5, "conn_rank": 20}}, {"type": "Feature", "geometry": {"type": "MultiPolygon", "coordinates": [[[[127.0083, 37.6848], [127.0081, 37.6802], [127.0119, 37.6794], [127.0139, 37.6749], [127.0186, 37.6696], [127.0155, 37.6661], [127.0166, 37.6617], [127.0145, 37.6619], [127.0126, 37.6523], [127.0132, 37.6504], [127.0172, 37.6487], [127.0214, 37.6489], [127.0325, 37.6419], [127.0346, 37.6378], [127.0375, 37.6365], [127.0394, 37.6328], [127.05, 37.6244], [127.0372, 37.6129], [127.0303, 37.6091], [127.03, 37.6123], [127.0222, 37.6113], [127.0174, 37.6147], [127.0108, 37.6163], [127.0078, 37.6197], [127.0081, 37.6241], [127.0, 37.6259], [126.9929, 37.6325], [126.9903, 37.6326], [126.9845, 37.6365], [126.9859, 37.6407], [126.9834, 37.6436], [126.9847, 37.6477], [126.9797, 37.6562], [126.9829, 37.6565], [126.9872, 37.6626], [126.9942, 37.6663], [126.9942, 37.6747], [126.9928, 37.6783], [126.9912, 37.6793], [126.996, 37.6819], [126.9952, 37.6849], [127.0022, 37.6838], [127.0042, 37.6851], [127.0083, 37.6848]]]]}, "properties": {"gu": "Gangbuk-gu", "gu_kr": "강북구", "conn_tier": "peripheral", "conn_mean_m": 37.5, "conn_rank": 18}}, {"type": "Feature", "geometry": {"type": "MultiPolygon", "coordinates": [[[[127.1095, 37.544], [127.1156, 37.5577], [127.123, 37.5635], [127.1343, 37.568], [127.1489, 37.5684], [127.1667, 37.579], [127.1714, 37.5808], [127.1771, 37.5805], [127.1755, 37.5784], [127.1757, 37.5749], [127.1815, 37.5623], [127.1814, 37.5529], [127.183, 37.5518], [127.1828, 37.5467], [127.1838, 37.5455], [127.1796, 37.5466], [127.1795, 37.5456], [127.1666, 37.5442], [127.1632, 37.545], [127.154, 37.5345], [127.1532, 37.5291], [127.1495, 37.5258], [127.1478, 37.5222], [127.1457, 37.5219], [127.1451, 37.5168], [127.1191, 37.528], [127.1234, 37.5386], [127.1095, 37.544]]]]}, "properties": {"gu": "Gangdong-gu", "gu_kr": "강동구", "conn_tier": "peripheral", "conn_mean_m": 41.0, "conn_rank": 21}}, {"type": "Feature", "geometry": {"type": "MultiPolygon", "coordinates": [[[[127.0641, 37.526], [127.0572, 37.5301], [127.0738, 37.5594], [127.0723, 37.56], [127.0784, 37.5718], [127.0918, 37.5695], [127.101, 37.5734], [127.1038, 37.5719], [127.1012, 37.5609], [127.1032, 37.5572], [127.1054, 37.5557], [127.1098, 37.5598], [127.1131, 37.5602], [127.1141, 37.5587], [127.1133, 37.5569], [127.1152, 37.5565], [127.1116, 37.5505], [127.1115, 37.547], [127.105, 37.5379], [127.0903, 37.5268], [127.0795, 37.5228], [127.0718, 37.5234], [127.0641, 37.526]]]]}, "properties": {"gu": "Gwangjin-gu", "gu_kr": "광진구", "conn_tier": "mid", "conn_mean_m": 32.6, "conn_rank": 13}}, {"type": "Feature", "geometry": {"type": "MultiPolygon", "coordinates": [[[[126.977, 37.5692], [126.969, 37.5682], [126.9667, 37.5658], [126.9536, 37.5788], [126.9582, 37.5811], [126.9575, 37.5931], [126.959, 37.5951], [126.958, 37.5982], [126.9531, 37.5988], [126.9524, 37.6025], [126.9541, 37.6051], [126.9504, 37.6092], [126.9507, 37.6154], [126.9491, 37.6229], [126.9489, 37.6253], [126.9574, 37.6291], [126.9729, 37.6324], [126.9753, 37.6316], [126.9749, 37.6288], [126.9796, 37.6287], [126.9797, 37.6262], [126.9834, 37.6217], [126.9835, 37.6185], [126.9865, 37.614], [126.9855, 37.6115], [126.9868, 37.6089], [126.9867, 37.604], [126.9785, 37.601], [126.9767, 37.5979], [126.9854, 37.5945], [126.989, 37.5914], [127.0009, 37.5923], [127.0023, 37.589], [127.0066, 37.586], [127.0067, 37.5823], [127.0089, 37.5804], [127.0147, 37.5822], [127.0168, 37.5816], [127.0181, 37.5777], [127.0214, 37.5789], [127.0232, 37.578], [127.0234, 37.5719], [127.0164, 37.5699], [126.9887, 37.5681], [126.977, 37.5692]]]]}, "properties": {"gu": "Jongno-gu", "gu_kr": "종로구", "conn_tier": "well-connected", "conn_mean_m": 25.6, "conn_rank": 2}}, {"type": "Feature", "geometry": {"type": "MultiPolygon", "coordinates": [[[[126.9634, 37.5569], [126.9617, 37.555], [126.9624, 37.5515], [126.9692, 37.5556], [126.9764, 37.5531], [126.9765, 37.5552], [126.9792, 37.5528], [126.9809, 37.5539], [126.9855, 37.5537], [126.9875, 37.5515], [126.9907, 37.551], [126.9952, 37.5476], [126.9979, 37.5499], [127.0041, 37.5504], [127.006, 37.5482], [127.0048, 37.5464], [127.0072, 37.5439], [127.009, 37.544], [127.0093, 37.5472], [127.0161, 37.5526], [127.0179, 37.5567], [127.0229, 37.5579], [127.0224, 37.5591], [127.0262, 37.563], [127.0268, 37.5651], [127.0236, 37.5652], [127.0234, 37.5719], [127.0153, 37.5697], [126.9899, 37.5681], [126.973, 37.5693], [126.969, 37.5682], [126.9667, 37.5658], [126.9695, 37.562], [126.9616, 37.5591], [126.9634, 37.5569]]]]}, "properties": {"gu": "Jung-gu", "gu_kr": "중구", "conn_tier": "well-connected", "conn_mean_m": 24.8, "conn_rank": 1}}, {"type": "Feature", "geometry": {"type": "MultiPolygon", "coordinates": [[[[127.0784, 37.5718], [127.0777, 37.5801], [127.0712, 37.5886], [127.0694, 37.5959], [127.0726, 37.6021], [127.0714, 37.6152], [127.086, 37.6203], [127.0958, 37.6174], [127.1057, 37.6209], [127.1108, 37.6211], [127.116, 37.6194], [127.1174, 37.6125], [127.1168, 37.6087], [127.1184, 37.6076], [127.1181, 37.6034], [127.1139, 37.5993], [127.1161, 37.5975], [127.1161, 37.5944], [127.113, 37.5928], [127.1103, 37.5889], [127.1084, 37.5832], [127.1026, 37.5793], [127.101, 37.5734], [127.0918, 37.5695], [127.0784, 37.5718]]]]}, "properties": {"gu": "Jungnang-gu", "gu_kr": "중랑구", "conn_tier": "mid", "conn_mean_m": 36.5, "conn_rank": 17}}, {"type": "Feature", "geometry": {"type": "MultiPolygon", "coordinates": [[[[126.9048, 37.5414], [126.8989, 37.548], [126.864, 37.5644], [126.8549, 37.5702], [126.8536, 37.5738], [126.8609, 37.575], [126.8635, 37.5775], [126.8759, 37.5791], [126.8773, 37.584], [126.8765, 37.5844], [126.882, 37.5908], [126.8887, 37.5847], [126.9091, 37.5712], [126.9267, 37.5647], [126.9283, 37.5634], [126.9266, 37.5589], [126.9369, 37.5551], [126.9414, 37.5565], [126.9591, 37.5572], [126.9616, 37.5591], [126.9631, 37.5582], [126.9634, 37.5569], [126.9617, 37.5548], [126.9637, 37.5488], [126.9579, 37.5455], [126.9582, 37.5423], [126.9534, 37.5375], [126.9463, 37.5357], [126.9446, 37.5338], [126.9303, 37.5414], [126.9271, 37.539], [126.9224, 37.5414], [126.9048, 37.5414]]]]}, "properties": {"gu": "Mapo-gu", "gu_kr": "마포구", "conn_tier": "well-connected", "conn_mean_m": 28.4, "conn_rank": 7}}, {"type": "Feature", "geometry": {"type": "MultiPolygon", "coordinates": [[[[127.1111, 37.6426], [127.1071, 37.6449], [127.092, 37.6465], [127.0943, 37.6537], [127.0915, 37.6578], [127.0919, 37.6605], [127.0945, 37.6635], [127.0956, 37.6681], [127.0948, 37.6751], [127.0917, 37.6786], [127.096, 37.6848], [127.0964, 37.6889], [127.0856, 37.6906], [127.0841, 37.694], [127.0811, 37.6962], [127.0765, 37.6957], [127.0731, 37.6938], [127.0635, 37.6949], [127.0597, 37.6902], [127.0518, 37.6873], [127.0521, 37.6844], [127.0489, 37.6684], [127.054, 37.6557], [127.0543, 37.65], [127.0559, 37.646], [127.0551, 37.6408], [127.0533, 37.6413], [127.0507, 37.6449], [127.0492, 37.6423], [127.0465, 37.641], [127.0443, 37.6338], [127.0417, 37.6312], [127.0609, 37.6151], [127.0625, 37.6143], [127.0713, 37.6161], [127.0714, 37.6152], [127.086, 37.6203], [127.0979, 37.6175], [127.1057, 37.6209], [127.1036, 37.6231], [127.1053, 37.6271], [127.112, 37.6325], [127.1124, 37.6368], [127.1106, 37.6391], [127.1123, 37.6402], [127.1111, 37.6426]]]]}, "properties": {"gu": "Nowon-gu", "gu_kr": "노원구", "conn_tier": "peripheral", "conn_mean_m": 41.0, "conn_rank": 22}}, {"type": "Feature", "geometry": {"type": "MultiPolygon", "coordinates": [[[[126.9655, 37.5603], [126.9695, 37.562], [126.9687, 37.5634], [126.9536, 37.5788], [126.9582, 37.5811], [126.9575, 37.5931], [126.959, 37.5951], [126.958, 37.5982], [126.9531, 37.5988], [126.9524, 37.6025], [126.9541, 37.6051], [126.9506, 37.6085], [126.9504, 37.6108], [126.94, 37.6031], [126.9414, 37.6007], [126.9409, 37.5988], [126.9303, 37.5946], [126.9278, 37.5917], [126.9278, 37.5881], [126.9239, 37.5872], [126.9218, 37.5834], [126.916, 37.5832], [126.9164, 37.5859], [126.9132, 37.5871], [126.9019, 37.5766], [126.9098, 37.5708], [126.926, 37.5652], [126.9283, 37.5634], [126.9266, 37.5589], [126.9369, 37.5551], [126.9414, 37.5565], [126.9591, 37.5572], [126.9655, 37.5603]]]]}, "properties": {"gu": "Seodaemun-gu", "gu_kr": "서대문구", "conn_tier": "mid", "conn_mean_m": 34.3, "conn_rank": 14}}, {"type": "Feature", "geometry": {"type": "MultiPolygon", "coordinates": [[[[126.9845, 37.6365], [126.9903, 37.6326], [126.9929, 37.6325], [127.0, 37.6259], [127.0081, 37.6241], [127.0078, 37.6197], [127.0103, 37.6167], [127.0174, 37.6147], [127.0222, 37.6113], [127.03, 37.6123], [127.0306, 37.6092], [127.0372, 37.6129], [127.05, 37.6244], [127.062, 37.6144], [127.0713, 37.6161], [127.0718, 37.6068], [127.0623, 37.6051], [127.0592, 37.601], [127.0521, 37.6001], [127.0513, 37.6013], [127.0455, 37.5953], [127.043, 37.597], [127.0418, 37.5965], [127.0387, 37.5913], [127.0362, 37.5912], [127.0363, 37.5899], [127.0295, 37.5827], [127.0232, 37.578], [127.0214, 37.5789], [127.0181, 37.5777], [127.0168, 37.5816], [127.0147, 37.5822], [127.0089, 37.5804], [127.0067, 37.5823], [127.0066, 37.586], [127.0023, 37.589], [127.0009, 37.5923], [126.989, 37.5914], [126.9854, 37.5945], [126.9767, 37.5979], [126.9785, 37.601], [126.9868, 37.6046], [126.9855, 37.6115], [126.9865, 37.614], [126.9835, 37.6185], [126.9834, 37.6217], [126.9797, 37.6262], [126.9796, 37.6287], [126.9749, 37.6288], [126.9745, 37.6298], [126.9775, 37.6337], [126.9845, 37.6365]]]]}, "properties": {"gu": "Seongbuk-gu", "gu_kr": "성북구", "conn_tier": "mid", "conn_mean_m": 29.8, "conn_rank": 10}}, {"type": "Feature", "geometry": {"type": "MultiPolygon", "coordinates": [[[[127.0419, 37.573], [127.0485, 37.57], [127.0591, 37.5623], [127.0738, 37.5594], [127.0572, 37.5301], [127.0293, 37.5394], [127.0239, 37.5397], [127.0175, 37.535], [127.0172, 37.5374], [127.0156, 37.5385], [127.0096, 37.5395], [127.0083, 37.5451], [127.0093, 37.5472], [127.0161, 37.5526], [127.0179, 37.5567], [127.0229, 37.5579], [127.0233, 37.5607], [127.0267, 37.5639], [127.0268, 37.5651], [127.0236, 37.5652], [127.0234, 37.5719], [127.0314, 37.5698], [127.0382, 37.573], [127.0419, 37.573]]]]}, "properties": {"gu": "Seongdong-gu", "gu_kr": "성동구", "conn_tier": "well-connected", "conn_mean_m": 27.6, "conn_rank": 4}}, {"type": "Feature", "geometry": {"type": "MultiPolygon", "coordinates": [[[[127.0671, 37.5204], [127.0705, 37.5034], [127.0965, 37.4962], [127.1063, 37.4914], [127.1226, 37.4688], [127.1228, 37.467], [127.1253, 37.4673], [127.1247, 37.4697], [127.1293, 37.4677], [127.1331, 37.4683], [127.132, 37.4698], [127.1327, 37.4748], [127.147, 37.4739], [127.1478, 37.4826], [127.1585, 37.4897], [127.1573, 37.49], [127.1597, 37.4936], [127.1598, 37.4968], [127.1615, 37.4998], [127.1577, 37.5032], [127.1565, 37.5019], [127.1503, 37.5047], [127.1455, 37.5033], [127.1412, 37.5054], [127.1403, 37.5102], [127.1414, 37.5124], [127.1435, 37.5127], [127.1406, 37.5156], [127.1446, 37.5156], [127.1453, 37.5166], [127.1191, 37.528], [127.1234, 37.5386], [127.1095, 37.544], [127.105, 37.5379], [127.0903, 37.5268], [127.0795, 37.5228], [127.0666, 37.5249], [127.0671, 37.5204]]]]}, "properties": {"gu": "Songpa-gu", "gu_kr": "송파구", "conn_tier": "mid", "conn_mean_m": 35.5, "conn_rank": 15}}, {"type": "Feature", "geometry": {"type": "MultiPolygon", "coordinates": [[[[126.9733, 37.5071], [126.9854, 37.5065], [127.0042, 37.5217], [127.0175, 37.535], [127.0172, 37.5374], [127.0133, 37.5395], [127.0096, 37.5395], [127.009, 37.544], [127.0072, 37.5439], [127.0048, 37.5464], [127.006, 37.5482], [127.0041, 37.5504], [126.9979, 37.5499], [126.9952, 37.5476], [126.9907, 37.551], [126.9875, 37.5515], [126.9854, 37.5537], [126.9792, 37.5528], [126.9765, 37.5552], [126.9764, 37.5531], [126.9692, 37.5556], [126.9657, 37.5542], [126.9623, 37.5515], [126.9637, 37.5488], [126.9579, 37.5455], [126.9574, 37.5432], [126.9584, 37.5428], [126.9557, 37.5395], [126.9513, 37.5363], [126.9463, 37.5357], [126.9446, 37.5338], [126.9499, 37.528], [126.9489, 37.5197], [126.9651, 37.5127], [126.9733, 37.5071]]]]}, "properties": {"gu": "Yongsan-gu", "gu_kr": "용산구", "conn_tier": "well-connected", "conn_mean_m": 26.2, "conn_rank": 3}}]}